start=new Date('2022-05-26T00:00:00.000Z').valueOf();
sats=[{"TLE_LINE1":"1 50177U 21125X   22145.81145154  .00000034  00000-0  20250-4 0  9994","CENTER_NAME":"EARTH","GP_ID":"204514950","TIME_SYSTEM":"UTC","NORAD_CAT_ID":"50177","FILE":"3464337","EPOCH":"2022-05-25T19:28:29.413056","MEAN_ELEMENT_THEORY":"SGP4","REF_FRAME":"TEME","MEAN_MOTION_DDOT":"0.0000000000000","CLASSIFICATION_TYPE":"U","EPHEMERIS_TYPE":"0","RCS_SIZE":"LARGE","APOAPSIS":"541.323","REV_AT_EPOCH":"2719","OBJECT_NAME":"STARLINK-3282","DECAY_DATE":null,"ELEMENT_SET_NO":"999","OBJECT_TYPE":"PAYLOAD","INCLINATION":"53.2197","PERIAPSIS":"538.081","ARG_OF_PERICENTER":"44.1263","ECCENTRICITY":"0.00023430","MEAN_MOTION_DOT":"0.00000034","MEAN_MOTION":"15.08854152","TLE_LINE2":"2 50177  53.2197 341.5949 0002343  44.1263 315.9916 15.08854152 27198","LAUNCH_DATE":"2021-12-18","SITE":"AFWTR","OBJECT_ID":"2021-125X","SEMIMAJOR_AXIS":"6917.837","RA_OF_ASC_NODE":"341.5949","PERIOD":"95.437","MEAN_ANOMALY":"315.9916","COUNTRY_CODE":"US","BSTAR":"0.00002025000000"},{"CLASSIFICATION_TYPE":"U","MEAN_MOTION_DDOT":"0.0000000000000","REF_FRAME":"TEME","MEAN_ELEMENT_THEORY":"SGP4","REV_AT_EPOCH":"2772","APOAPSIS":"541.102","RCS_SIZE":"LARGE","EPHEMERIS_TYPE":"0","FILE":"3464394","EPOCH":"2022-05-25T20:05:35.985984","TIME_SYSTEM":"UTC","NORAD_CAT_ID":"50178","CENTER_NAME":"EARTH","TLE_LINE1":"1 50178U 21125Y   22145.83722206  .00001138  00000-0  89591-4 0  9995","GP_ID":"204539710","MEAN_ANOMALY":"317.6047","PERIOD":"95.438","RA_OF_ASC_NODE":"341.4736","BSTAR":"0.00008959100000","COUNTRY_CODE":"US","SEMIMAJOR_AXIS":"6917.893","SITE":"AFWTR","OBJECT_ID":"2021-125Y","MEAN_MOTION":"15.08835761","MEAN_MOTION_DOT":"0.00001138","ECCENTRICITY":"0.00019420","ARG_OF_PERICENTER":"42.5095","TLE_LINE2":"2 50178  53.2174 341.4736 0001942  42.5095 317.6047 15.08835761 27724","LAUNCH_DATE":"2021-12-18","ELEMENT_SET_NO":"999","DECAY_DATE":null,"OBJECT_NAME":"STARLINK-3284","PERIAPSIS":"538.415","INCLINATION":"53.2174","OBJECT_TYPE":"PAYLOAD"},{"TLE_LINE1":"1 50179U 21125Z   22145.80409794  .00002496  00000-0  17483-3 0  9995","CENTER_NAME":"EARTH","GP_ID":"204539961","TIME_SYSTEM":"UTC","NORAD_CAT_ID":"50179","FILE":"3464394","EPOCH":"2022-05-25T19:17:54.062016","MEAN_MOTION_DDOT":"0.0000000000000","CLASSIFICATION_TYPE":"U","MEAN_ELEMENT_THEORY":"SGP4","REF_FRAME":"TEME","REV_AT_EPOCH":"2768","EPHEMERIS_TYPE":"0","APOAPSIS":"541.334","RCS_SIZE":"LARGE","ELEMENT_SET_NO":"999","OBJECT_NAME":"STARLINK-3283","DECAY_DATE":null,"INCLINATION":"53.2192","PERIAPSIS":"538.113","OBJECT_TYPE":"PAYLOAD","MEAN_MOTION":"15.08847010","ECCENTRICITY":"0.00023280","ARG_OF_PERICENTER":"40.3065","MEAN_MOTION_DOT":"0.00002496","TLE_LINE2":"2 50179  53.2192 341.6280 0002328  40.3065 319.8100 15.08847010 27682","LAUNCH_DATE":"2021-12-18","SEMIMAJOR_AXIS":"6917.859","SITE":"AFWTR","OBJECT_ID":"2021-125Z","MEAN_ANOMALY":"319.8100","PERIOD":"95.437","RA_OF_ASC_NODE":"341.6280","BSTAR":"0.00017483000000","COUNTRY_CODE":"US"},{"NORAD_CAT_ID":"50180","TIME_SYSTEM":"UTC","GP_ID":"204514954","TLE_LINE1":"1 50180U 21125AA  22145.85562434 -.00000212  00000-0  47706-5 0  9991","CENTER_NAME":"EARTH","REV_AT_EPOCH":"2460","EPHEMERIS_TYPE":"0","RCS_SIZE":"LARGE","APOAPSIS":"541.401","MEAN_MOTION_DDOT":"0.0000000000000","CLASSIFICATION_TYPE":"U","MEAN_ELEMENT_THEORY":"SGP4","REF_FRAME":"TEME","EPOCH":"2022-05-25T20:32:05.942976","FILE":"3464337","TLE_LINE2":"2 50180  53.2202 341.3937 0002356  42.4541 317.6633 15.08831475 24609","LAUNCH_DATE":"2021-12-18","MEAN_MOTION":"15.08831475","ARG_OF_PERICENTER":"42.4541","ECCENTRICITY":"0.00023560","MEAN_MOTION_DOT":"-0.00000212","INCLINATION":"53.2202","PERIAPSIS":"538.142","OBJECT_TYPE":"PAYLOAD","ELEMENT_SET_NO":"999","OBJECT_NAME":"STARLINK-3265","DECAY_DATE":null,"BSTAR":"0.00000477060000","COUNTRY_CODE":"US","RA_OF_ASC_NODE":"341.3937","PERIOD":"95.438","MEAN_ANOMALY":"317.6633","SEMIMAJOR_AXIS":"6917.906","OBJECT_ID":"2021-125AA","SITE":"AFWTR"},{"COUNTRY_CODE":"US","BSTAR":"0.00011121000000","RA_OF_ASC_NODE":"341.4176","PERIOD":"95.437","MEAN_ANOMALY":"320.3129","SITE":"AFWTR","OBJECT_ID":"2021-125AB","SEMIMAJOR_AXIS":"6917.875","TLE_LINE2":"2 50181  53.2189 341.4176 0002096  39.8016 320.3129 15.08841919 27202","LAUNCH_DATE":"2021-12-18","MEAN_MOTION_DOT":"0.00001482","ARG_OF_PERICENTER":"39.8016","ECCENTRICITY":"0.00020960","MEAN_MOTION":"15.08841919","OBJECT_TYPE":"PAYLOAD","PERIAPSIS":"538.290","INCLINATION":"53.2189","DECAY_DATE":null,"OBJECT_NAME":"STARLINK-3285","ELEMENT_SET_NO":"999","RCS_SIZE":"LARGE","APOAPSIS":"541.190","EPHEMERIS_TYPE":"0","REV_AT_EPOCH":"2720","REF_FRAME":"TEME","MEAN_ELEMENT_THEORY":"SGP4","CLASSIFICATION_TYPE":"U","MEAN_MOTION_DDOT":"0.0000000000000","EPOCH":"2022-05-25T20:21:28.697184","FILE":"3464339","NORAD_CAT_ID":"50181","TIME_SYSTEM":"UTC","GP_ID":"204514978","CENTER_NAME":"EARTH","TLE_LINE1":"1 50181U 21125AB  22145.84824881  .00001482  00000-0  11121-3 0  9997"},{"SEMIMAJOR_AXIS":"6917.923","SITE":"AFWTR","OBJECT_ID":"2021-125AC","PERIOD":"95.438","MEAN_ANOMALY":"325.6861","RA_OF_ASC_NODE":"341.4509","BSTAR":"0.00008274800000","COUNTRY_CODE":"US","ELEMENT_SET_NO":"999","OBJECT_NAME":"STARLINK-3277","DECAY_DATE":null,"INCLINATION":"53.2197","PERIAPSIS":"538.119","OBJECT_TYPE":"PAYLOAD","MEAN_MOTION":"15.08826041","ARG_OF_PERICENTER":"34.4287","ECCENTRICITY":"0.00024120","MEAN_MOTION_DOT":"0.00001028","TLE_LINE2":"2 50182  53.2197 341.4509 0002412  34.4287 325.6861 15.08826041 27205","LAUNCH_DATE":"2021-12-18","FILE":"3464337","EPOCH":"2022-05-25T20:10:54.565248","MEAN_MOTION_DDOT":"0.0000000000000","CLASSIFICATION_TYPE":"U","MEAN_ELEMENT_THEORY":"SGP4","REF_FRAME":"TEME","REV_AT_EPOCH":"2720","EPHEMERIS_TYPE":"0","RCS_SIZE":"LARGE","APOAPSIS":"541.457","TLE_LINE1":"1 50182U 21125AC  22145.84090932  .00001028  00000-0  82748-4 0  9990","CENTER_NAME":"EARTH","GP_ID":"204514956","TIME_SYSTEM":"UTC","NORAD_CAT_ID":"50182"},{"GP_ID":"204514987","TLE_LINE1":"1 50183U 21125AD  22145.77834736 -.00001265  00000-0 -61365-4 0  9998","CENTER_NAME":"EARTH","NORAD_CAT_ID":"50183","TIME_SYSTEM":"UTC","EPOCH":"2022-05-25T18:40:49.211904","FILE":"3464340","REV_AT_EPOCH":"2459","EPHEMERIS_TYPE":"0","RCS_SIZE":"LARGE","APOAPSIS":"541.674","MEAN_MOTION_DDOT":"0.0000000000000","CLASSIFICATION_TYPE":"U","MEAN_ELEMENT_THEORY":"SGP4","REF_FRAME":"TEME","INCLINATION":"53.2208","PERIAPSIS":"537.886","OBJECT_TYPE":"PAYLOAD","ELEMENT_SET_NO":"999","OBJECT_NAME":"STARLINK-3281","DECAY_DATE":null,"LAUNCH_DATE":"2021-12-18","TLE_LINE2":"2 50183  53.2208 341.7369 0002738  29.9222 330.1927 15.08828629 24592","MEAN_MOTION":"15.08828629","ARG_OF_PERICENTER":"29.9222","ECCENTRICITY":"0.00027380","MEAN_MOTION_DOT":"-0.00001265","SEMIMAJOR_AXIS":"6917.915","SITE":"AFWTR","OBJECT_ID":"2021-125AD","BSTAR":"-0.00006136500000","COUNTRY_CODE":"US","PERIOD":"95.438","MEAN_ANOMALY":"330.1927","RA_OF_ASC_NODE":"341.7369"},{"MEAN_MOTION_DOT":"0.00002954","ARG_OF_PERICENTER":"44.3305","ECCENTRICITY":"0.00020670","MEAN_MOTION":"15.08845065","LAUNCH_DATE":"2021-12-18","TLE_LINE2":"2 50185  53.2189 341.4099 0002067  44.3305 315.7852 15.08845065 27218","DECAY_DATE":null,"OBJECT_NAME":"STARLINK-3279","ELEMENT_SET_NO":"999","OBJECT_TYPE":"PAYLOAD","PERIAPSIS":"538.300","INCLINATION":"53.2189","RA_OF_ASC_NODE":"341.4099","PERIOD":"95.437","MEAN_ANOMALY":"315.7852","COUNTRY_CODE":"US","BSTAR":"0.00020359000000","OBJECT_ID":"2021-125AF","SITE":"AFWTR","SEMIMAJOR_AXIS":"6917.865","TIME_SYSTEM":"UTC","NORAD_CAT_ID":"50185","CENTER_NAME":"EARTH","TLE_LINE1":"1 50185U 21125AF  22145.85194194  .00002954  00000-0  20359-3 0  9997","GP_ID":"204514952","REF_FRAME":"TEME","MEAN_ELEMENT_THEORY":"SGP4","CLASSIFICATION_TYPE":"U","MEAN_MOTION_DDOT":"0.0000000000000","APOAPSIS":"541.160","RCS_SIZE":"LARGE","EPHEMERIS_TYPE":"0","REV_AT_EPOCH":"2721","FILE":"3464337","EPOCH":"2022-05-25T20:26:47.783616"},{"TLE_LINE2":"2 50186  53.2186 351.3365 0002476  26.8072 333.3048 15.08835492 27544","LAUNCH_DATE":"2021-12-18","MEAN_MOTION_DOT":"0.00000831","ECCENTRICITY":"0.00024760","ARG_OF_PERICENTER":"26.8072","MEAN_MOTION":"15.08835492","OBJECT_TYPE":"PAYLOAD","PERIAPSIS":"538.046","INCLINATION":"53.2186","DECAY_DATE":null,"OBJECT_NAME":"STARLINK-3274","ELEMENT_SET_NO":"999","COUNTRY_CODE":"US","BSTAR":"0.00007034400000","MEAN_ANOMALY":"333.3048","PERIOD":"95.438","RA_OF_ASC_NODE":"351.3365","SITE":"AFWTR","OBJECT_ID":"2021-125AG","SEMIMAJOR_AXIS":"6917.894","NORAD_CAT_ID":"50186","TIME_SYSTEM":"UTC","GP_ID":"204539460","CENTER_NAME":"EARTH","TLE_LINE1":"1 50186U 21125AG  22145.86573876  .00000831  00000-0  70344-4 0  9999","RCS_SIZE":"LARGE","APOAPSIS":"541.472","EPHEMERIS_TYPE":"0","REV_AT_EPOCH":"2754","REF_FRAME":"TEME","MEAN_ELEMENT_THEORY":"SGP4","CLASSIFICATION_TYPE":"U","MEAN_MOTION_DDOT":"0.0000000000000","EPOCH":"2022-05-25T20:46:39.828864","FILE":"3464394"},{"NORAD_CAT_ID":"50187","TIME_SYSTEM":"UTC","GP_ID":"204539711","CENTER_NAME":"EARTH","TLE_LINE1":"1 50187U 21125AH  22145.82710554  .00001175  00000-0  91955-4 0  9995","REV_AT_EPOCH":"2780","RCS_SIZE":"LARGE","APOAPSIS":"541.087","EPHEMERIS_TYPE":"0","CLASSIFICATION_TYPE":"U","MEAN_MOTION_DDOT":"0.0000000000000","REF_FRAME":"TEME","MEAN_ELEMENT_THEORY":"SGP4","EPOCH":"2022-05-25T19:51:01.918656","FILE":"3464394","TLE_LINE2":"2 50187  53.2188 331.5192 0001898  50.2472 309.8687 15.08830689 27806","LAUNCH_DATE":"2021-12-18","MEAN_MOTION":"15.08830689","MEAN_MOTION_DOT":"0.00001175","ECCENTRICITY":"0.00018980","ARG_OF_PERICENTER":"50.2472","PERIAPSIS":"538.461","INCLINATION":"53.2188","OBJECT_TYPE":"PAYLOAD","ELEMENT_SET_NO":"999","DECAY_DATE":null,"OBJECT_NAME":"STARLINK-3272","BSTAR":"0.00009195500000","COUNTRY_CODE":"US","PERIOD":"95.438","MEAN_ANOMALY":"309.8687","RA_OF_ASC_NODE":"331.5192","SEMIMAJOR_AXIS":"6917.909","OBJECT_ID":"2021-125AH","SITE":"AFWTR"}];
